[{"OBJECT_NAME":"STARLINK-34748","OBJECT_ID":"2025-152G","EPOCH":"2026-03-09T13:53:52.242432","MEAN_MOTION":15.05633159,"ECCENTRICITY":0.0003972,"INCLINATION":97.5998,"RA_OF_ASC_NODE":285.4411,"ARG_OF_PERICENTER":100.2475,"MEAN_ANOMALY":259.92,"EPHEMERIS_TYPE":0,"CLASSIFICATION_TYPE":"U","NORAD_CAT_ID":64848,"ELEMENT_SET_NO":999,"REV_AT_EPOCH":3540,"BSTAR":-7.612e-7,"MEAN_MOTION_DOT":-7.2e-7,"MEAN_MOTION_DDOT":0},{"OBJECT_NAME":"UNKNOWN","OBJECT_ID":"","EPOCH":"2026-03-09T02:53:57.432768","MEAN_MOTION":15.04852502,"ECCENTRICITY":0.0007482,"INCLINATION":86.6587,"RA_OF_ASC_NODE":118.2618,"ARG_OF_PERICENTER":183.1315,"MEAN_ANOMALY":176.9875,"EPHEMERIS_TYPE":0,"CLASSIFICATION_TYPE":"U","NORAD_CAT_ID":82402,"ELEMENT_SET_NO":999,"REV_AT_EPOCH":46745,"BSTAR":0.00051144,"MEAN_MOTION_DOT":7.26e-5,"MEAN_MOTION_DDOT":0}]
